      2.10          N: GNSS NAV DATA                        RINEX VERSION / TYPE
fic2rin                                 04/03/2021 00:17:28 PGM / RUN BY / DATE
                                                            END OF HEADER
20 21  4  2 18  0  0.0 5.235797725618e-04-3.410605131648e-13 0.000000000000e+00
    7.700000000000e+01-3.943750000000e+01 4.866988443890e-09-1.342221344152e+00
   -2.006068825722e-06 6.028703763150e-03 8.873641490936e-06 5.151695117950e+03
    4.968000000000e+05-6.891787052155e-08-1.543469096072e+00-9.872019290924e-08
    9.372210041825e-01 1.990000000000e+02 3.018316730996e+00-8.122124033353e-09
    4.678766317969e-10 1.000000000000e+00 2.151000000000e+03 0.000000000000e+00
    2.400000000000e+00 0.000000000000e+00-8.381903171539e-09 7.700000000000e+01
    4.896000000000e+05 4.000000000000e+00
17 21  4  2 18  0  0.0 4.199803806841e-04 6.366462912410e-12 0.000000000000e+00
    4.300000000000e+01-2.840625000000e+01 4.268749239112e-09 1.256436969060e+00
   -1.784414052963e-06 1.337711245287e-02 2.883374691010e-06 5.153573911667e+03
    4.968000000000e+05-2.142041921616e-07 2.849329798617e+00-3.278255462646e-07
    9.826548363411e-01 3.387812500000e+02-1.570735542549e+00-8.307846055135e-09
   -1.800074980348e-10 1.000000000000e+00 2.151000000000e+03 0.000000000000e+00
    2.400000000000e+00 0.000000000000e+00-1.117587089539e-08 4.300000000000e+01
    4.896000000000e+05 4.000000000000e+00
18 21  4  2 18  0  0.0 3.514736890793e-04 3.410605131648e-13 0.000000000000e+00
    1.820000000000e+02-9.290625000000e+01 4.121600252623e-09-7.016874512760e-01
   -4.917383193970e-06 1.255525858141e-03 7.936730980873e-06 5.153677270889e+03
    4.968000000000e+05 5.029141902924e-08-2.425028371434e+00-1.117587089539e-07
    9.675791158968e-01 2.329687500000e+02 2.980148322020e+00-7.901757711354e-09
   -1.189335254873e-10 1.000000000000e+00 2.151000000000e+03 0.000000000000e+00
    2.400000000000e+00 0.000000000000e+00-8.381903171539e-09 1.820000000000e+02
    4.896000000000e+05 4.000000000000e+00
14 21  4  2 18  0  0.0 9.838119149208e-05-1.705302565824e-12 0.000000000000e+00
    9.000000000000e+01 1.125937500000e+02 4.657694011651e-09-1.594307588373e+00
    5.841255187988e-06 5.209655500948e-04 6.265938282013e-06 5.153750740051e+03
    4.968000000000e+05 1.303851604462e-08 1.787099635759e+00 5.587935447693e-09
    9.574933388008e-01 2.596250000000e+02 2.397143483654e+00-8.191412633787e-09
    8.107480566251e-11 1.000000000000e+00 2.151000000000e+03 0.000000000000e+00
    2.400000000000e+00 0.000000000000e+00-7.916241884232e-09 8.580000000000e+02
    4.896000000000e+05 4.000000000000e+00
11 21  4  2 18  0  0.0 1.852866262197e-05 1.068656274583e-11 0.000000000000e+00
    8.700000000000e+01-8.181250000000e+01 5.634877572412e-09-1.662794652700e+00
   -4.105269908905e-06 1.530593761709e-02 4.881992936134e-06 5.154082584381e+03
    4.968000000000e+05-3.930181264877e-07-2.932142273186e+00 1.583248376846e-07
    9.146230028621e-01 2.585937500000e+02 2.089788118326e+00-8.812867091288e-09
   -2.342954736326e-10 1.000000000000e+00 2.151000000000e+03 0.000000000000e+00
    2.400000000000e+00 6.300000000000e+01-1.257285475731e-08 8.700000000000e+01
    4.896000000000e+05 4.000000000000e+00
23 21  4  2 18  0  0.0 1.154220663011e-04-1.591615728103e-12 0.000000000000e+00
    2.070000000000e+02-3.515625000000e+01 4.308036589873e-09-1.287830367418e+00
   -1.758337020874e-06 1.084497547708e-03 8.767470717430e-06 5.153645833969e+03
    4.968000000000e+05-4.097819328308e-08-1.425503428591e+00 4.470348358154e-08
    9.632843058693e-01 2.136562500000e+02 2.554694359697e+00-7.818897117021e-09
    4.353752779850e-10 1.000000000000e+00 2.151000000000e+03 0.000000000000e+00
    2.400000000000e+00 0.000000000000e+00-8.381903171539e-09 4.630000000000e+02
    4.896000000000e+05 4.000000000000e+00
28 21  4  2 18  0  0.0 5.928170867264e-04-5.684341886081e-12 0.000000000000e+00
    1.040000000000e+02 1.139375000000e+02 4.230176203818e-09 2.026913101798e+00
    5.722045898438e-06 1.775869727135e-02 5.552545189857e-06 5.153671285629e+03
    4.968000000000e+05 3.334134817123e-07 1.835746480747e+00-6.891787052155e-08
    9.731728786823e-01 2.744687500000e+02-1.345369701854e+00-7.776038188917e-09
    1.214336296267e-11 1.000000000000e+00 2.151000000000e+03 0.000000000000e+00
    4.850000000000e+00 0.000000000000e+00-1.117587089539e-08 1.040000000000e+02
    4.896000000000e+05 4.000000000000e+00
 6 21  4  2 17 59 44.0 4.485715180635e-06 2.501110429876e-12 0.000000000000e+00
    2.300000000000e+01-1.046875000000e+02 3.783371878339e-09-6.309807276800e-01
   -5.403533577919e-06 2.307753660716e-03 8.706003427505e-06 5.153742837906e+03
    4.967840000000e+05-5.587935447693e-08-2.445835649844e+00 3.166496753693e-08
    9.833771345877e-01 2.243437500000e+02-1.011682586446e+00-7.806039438590e-09
   -9.071806448581e-11 1.000000000000e+00 2.151000000000e+03 0.000000000000e+00
    2.400000000000e+00 0.000000000000e+00 3.725290298462e-09 2.300000000000e+01
    4.906800000000e+05 4.000000000000e+00
24 21  4  2 17 59 44.0 2.831220626831e-07-4.547473508865e-13 0.000000000000e+00
    6.000000000000e+01 2.943750000000e+01 5.212717130592e-09-5.410374154657e-01
    1.685693860054e-06 1.102293736767e-02 9.737908840179e-06 5.153738489151e+03
    4.967840000000e+05 8.754432201385e-08 6.257785514913e-01 1.098960638046e-07
    9.355431278465e-01 1.810000000000e+02 7.370428911491e-01-8.369634343151e-09
   -3.178703834345e-10 1.000000000000e+00 2.151000000000e+03 0.000000000000e+00
    2.400000000000e+00 0.000000000000e+00 2.793967723846e-09 6.000000000000e+01
    4.912800000000e+05 4.000000000000e+00
 6 21  4  2 19 59 44.0 4.503410309553e-06 2.501110429876e-12 0.000000000000e+00
    2.400000000000e+01-8.756250000000e+01 3.897305195548e-09 4.191012522665e-01
   -4.647299647331e-06 2.304982510395e-03 8.221715688705e-06 5.153737598419e+03
    5.039840000000e+05-2.607703208923e-08-2.445891735197e+00-2.607703208923e-08
    9.833762700031e-01 2.345312500000e+02-1.011629543963e+00-7.811753962337e-09
   -1.267909956396e-10 1.000000000000e+00 2.151000000000e+03 0.000000000000e+00
    2.400000000000e+00 0.000000000000e+00 3.725290298462e-09 2.400000000000e+01
    4.968000000000e+05 4.000000000000e+00
24 21  4  2 19 59 44.0 2.793967723846e-07-4.547473508865e-13 0.000000000000e+00
    7.400000000000e+01 3.196875000000e+01 5.109498545409e-09 5.091168384856e-01
    1.572072505951e-06 1.102333934978e-02 9.676441550255e-06 5.153739274979e+03
    5.039840000000e+05-3.539025783539e-08 6.257187459373e-01 1.434236764908e-07
    9.355408383797e-01 1.826562500000e+02 7.370340551239e-01-8.317489313958e-09
   -3.810873023872e-10 1.000000000000e+00 2.151000000000e+03 0.000000000000e+00
    2.400000000000e+00 0.000000000000e+00 2.793967723846e-09 7.400000000000e+01
    4.968000000000e+05 4.000000000000e+00
 2 21  4  2 20  0  0.0-5.920450203121e-04-3.524291969370e-12 0.000000000000e+00
    9.500000000000e+01-9.540625000000e+01 4.513759444770e-09 4.106879240805e-01
   -5.038455128670e-06 2.028400881682e-02 7.823109626770e-06 5.153647552490e+03
    5.040000000000e+05-2.477318048477e-07-2.520299291896e+00-9.685754776001e-08
    9.626588747433e-01 2.372500000000e+02-1.528719610748e+00-8.478924609815e-09
   -2.296524230881e-10 1.000000000000e+00 2.151000000000e+03 0.000000000000e+00
    2.400000000000e+00 0.000000000000e+00-1.769512891769e-08 9.500000000000e+01
    4.968000000000e+05 4.000000000000e+00
 1 21  4  2 20  0  0.0 7.262607105076e-04-9.436007530894e-12 0.000000000000e+00
    1.040000000000e+02-7.662500000000e+01 3.957664852627e-09 1.540925201491e-01
   -3.919005393982e-06 1.063620403875e-02 7.409602403641e-06 5.153690311432e+03
    5.040000000000e+05-2.793967723846e-08-2.437638870106e+00 1.266598701477e-07
    9.838987687501e-01 2.458125000000e+02 8.258324276697e-01-8.007476400676e-09
   -1.253623647028e-10 1.000000000000e+00 2.151000000000e+03 0.000000000000e+00
    2.400000000000e+00 0.000000000000e+00 4.656612873077e-09 1.040000000000e+02
    4.968000000000e+05 4.000000000000e+00
 3 21  4  2 20  0  0.0-1.257159747183e-04-1.080024958355e-11 0.000000000000e+00
    5.700000000000e+01-2.968750000000e+01 4.312679640418e-09-9.373132280011e-01
   -1.652166247368e-06 3.341456060298e-03 8.653849363327e-06 5.153624923706e+03
    5.040000000000e+05 7.450580596924e-08-1.399449521764e+00 4.284083843231e-08
    9.684225598525e-01 2.173125000000e+02 8.258521200100e-01-7.917829809393e-09
    2.639395655709e-10 1.000000000000e+00 2.151000000000e+03 0.000000000000e+00
    2.400000000000e+00 0.000000000000e+00 1.862645149231e-09 5.700000000000e+01
    4.968000000000e+05 4.000000000000e+00
 4 21  4  2 20  0  0.0-1.897308975458e-04-2.046363078989e-12 0.000000000000e+00
    7.100000000000e+01-9.562500000000e+00 4.724839665680e-09 1.830366900871e+00
   -4.600733518600e-07 1.157947117463e-03 7.139518857002e-06 5.153757698059e+03
    5.040000000000e+05-1.490116119385e-08-3.188878762400e-01 2.235174179077e-08
    9.606260652229e-01 2.419687500000e+02-2.977585269064e+00-8.071764792831e-09
   -3.785871982478e-11 1.000000000000e+00 2.151000000000e+03 0.000000000000e+00
    2.400000000000e+00 0.000000000000e+00-4.190951585770e-09 3.270000000000e+02
    4.968000000000e+05 4.000000000000e+00
16 21  4  2 20  0  0.0-3.035943955183e-04-5.911715561524e-12 0.000000000000e+00
    2.400000000000e+01 9.946875000000e+01 4.274106605125e-09-3.027426623236e+00
    4.971399903297e-06 1.226617547218e-02 6.701797246933e-06 5.153676948547e+03
    5.040000000000e+05-7.264316082001e-08 1.832118727716e+00-2.291053533554e-07
    9.740926269821e-01 2.585937500000e+02 6.683481641380e-01-7.842112369743e-09
    1.075044779930e-10 1.000000000000e+00 2.151000000000e+03 0.000000000000e+00
    2.400000000000e+00 0.000000000000e+00-1.024454832077e-08 2.400000000000e+01
    4.968000000000e+05 4.000000000000e+00
